OBJECT_NAME,OBJECT_ID,EPOCH,MEAN_MOTION,ECCENTRICITY,INCLINATION,RA_OF_ASC_NODE,ARG_OF_PERICENTER,MEAN_ANOMALY,EPHEMERIS_TYPE,CLASSIFICATION_TYPE,NORAD_CAT_ID,ELEMENT_SET_NO,REV_AT_EPOCH,BSTAR,MEAN_MOTION_DOT,MEAN_MOTION_DDOT
M2 PATHFINDER,2020-037E,2026-07-16T12:08:02.629536,15.04793454,.0012797,97.8141,29.0690,58.4757,301.7717,0,U,45727,999,32990,.4860448E-4,.622E-5,0
NETSAT-4,2020-068U,2026-07-16T11:26:15.042336,15.44783010,.00048983,97.8602,208.0920,188.8567,171.2594,0,U,46504,999,32029,.20618955E-3,.9555E-4,0
NETSAT-3,2020-068V,2026-07-15T23:40:17.218560,15.43625105,.00039282,97.8652,205.7431,207.3174,152.7867,0,U,46505,999,32012,.23933825E-3,.10678E-3,0
NETSAT-1,2020-068W,2026-07-16T11:17:49.992864,15.35262363,.00025273,97.8753,200.2453,254.7410,105.3553,0,U,46506,999,31979,.18846515E-3,.6363E-4,0
NETSAT-2,2020-068X,2026-07-16T14:28:02.035776,15.47202844,.00023457,97.8614,208.2368,202.3587,157.7559,0,U,46507,999,32028,.27099193E-3,.13683E-3,0
GREENCUBE (IO-117),2022-080E,2026-07-16T06:55:09.765408,6.42583343,.00090797,70.1408,288.1261,283.0875,76.8771,0,U,53109,999,9393,0,-.3E-7,0
SITRO-AIS 5 (KATYS),2023-091L,2026-07-16T13:41:00.604032,15.30082510,.00105009,97.5043,261.7597,7.6028,352.5369,0,U,57176,999,16883,.21935504E-3,.6317E-4,0
SITRO-AIS 6 (CHIRKIN),2023-091AC,2026-07-16T14:49:49.335168,15.26452912,.00110234,97.5051,260.7685,11.6564,348.4927,0,U,57192,999,16877,.20002405E-3,.5146E-4,0
SITRO-AIS 8 (ANOKHIN),2023-091AD,2026-07-16T14:23:55.260960,15.32880893,.00093617,97.5039,263.5011,3.1138,357.0160,0,U,57193,999,16895,.2629849E-3,.8282E-4,0
SITRO-AIS 7 (FARTUSHNIY),2023-091AE,2026-07-16T15:03:12.650400,15.26126516,.00109913,97.5046,260.5872,12.8396,347.3120,0,U,57194,999,16876,.19488309E-3,.4963E-4,0
SITRO-AIS 10 (BURDAEV),2023-091AK,2026-07-16T13:40:36.128640,15.39659558,.00047388,97.5065,268.8352,335.2812,24.8206,0,U,57199,999,16928,.29303923E-3,.11483E-3,0
SITRO-AIS 9 (SHCHUKIN),2023-091AM,2026-07-16T14:32:26.220192,15.39144857,.00050132,97.5063,268.5785,335.5800,24.5207,0,U,57201,999,16927,.30277047E-3,.11669E-3,0
SITRO-AIS 12 (SMIRENNIY),2023-091AQ,2026-07-16T14:10:51.441888,15.39440340,.00045831,97.5077,269.0487,327.7176,32.3788,0,U,57204,999,16929,.28197726E-3,.10966E-3,0
SITRO-AIS 11 (SHEFFER),2023-091AU,2026-07-16T14:18:13.567104,15.39884597,.00044846,97.5075,269.3195,327.0851,33.0115,0,U,57208,999,16931,.29151371E-3,.11507E-3,0
SITRO-AIS 25,2024-039R,2026-07-16T14:04:48.114336,14.93647708,.01428891,95.3891,255.2950,224.5973,134.3686,0,U,59066,999,12911,.14302535E-3,.1812E-4,0
SITRO-AIS 26,2024-039S,2026-07-16T14:12:36.853344,14.93439238,.01432171,95.3892,255.1903,225.1997,133.7513,0,U,59067,999,12910,.12754979E-3,.1604E-4,0
SITRO-AIS 27,2024-039T,2026-07-16T14:54:17.132832,14.93862580,.0142308,95.3897,255.4957,223.6041,135.3869,0,U,59068,999,12913,.10872101E-3,.1374E-4,0
SITRO-AIS 28,2024-039U,2026-07-16T14:20:51.343008,14.93897792,.01421889,95.3895,255.5286,223.5374,135.4560,0,U,59071,999,12913,.12313819E-3,.1562E-4,0
GRBBETA,2024-128C,2026-07-16T08:29:43.636128,15.06812637,.00368971,61.9898,113.9204,140.9185,219.4584,0,U,60237,999,11066,.12123355E-3,.1619E-4,0
OOV-CUBE (TUBSAT-30),2024-128F,2026-07-16T12:44:55.891680,15.02876977,.00409431,61.9939,123.2433,140.3157,220.0943,0,U,60240,999,11052,.84626029E-4,.944E-5,0
ROBUSTA-3A (MEDITERRANEE),2024-128J,2026-07-16T07:15:56.536416,15.11995770,.00379731,61.9865,105.2566,133.9468,226.4772,0,U,60243,999,11082,.22080964E-3,.3645E-4,0
LASARSAT,2024-247Q,2026-07-16T02:15:08.659008,15.48082110,.00074765,44.9739,99.5612,171.6523,188.4493,0,U,62391,999,8779,.39100475E-3,.20669E-3,0
CROCUBE,2024-247T,2026-07-16T02:50:28.918464,15.50241694,.00076811,44.9721,96.2522,178.5471,181.5444,0,U,62394,999,8783,.43575645E-3,.24938E-3,0
FORESAIL-1 PRIME,2025-276DS,2026-07-16T10:42:05.677056,15.18943971,.00027863,97.4192,270.1839,41.5942,318.5504,0,U,66778,999,3484,.10692266E-3,.2166E-4,0
KNACKSAT-2,1998-067XZ,2026-07-16T09:50:21.532416,15.62488251,.00079229,51.6275,147.1984,331.8653,28.1912,0,U,67683,999,2484,.37621677E-3,.3379E-3,0
