M2 PATHFINDER           
1 45727U 20037E   26197.50558599  .00000622  00000+0  48604-4 0  9993
2 45727  97.8141  29.0690 0012797  58.4757 301.7717 15.04793454329906
NETSAT-4                
1 46504U 20068U   26197.47656299  .00009555  00000+0  20619-3 0  9992
2 46504  97.8602 208.0920 0004898 188.8567 171.2594 15.44783010320294
NETSAT-3                
1 46505U 20068V   26196.98631040  .00010678  00000+0  23934-3 0  9996
2 46505  97.8652 205.7431 0003928 207.3174 152.7867 15.43625105320123
NETSAT-1                
1 46506U 20068W   26197.47071751  .00006363  00000+0  18847-3 0  9992
2 46506  97.8753 200.2453 0002527 254.7410 105.3553 15.35262363319794
NETSAT-2                
1 46507U 20068X   26197.60280134  .00013683  00000+0  27099-3 0  9997
2 46507  97.8614 208.2368 0002345 202.3587 157.7559 15.47202844320280
GREENCUBE (IO-117)      
1 53109U 22080E   26197.28830747 -.00000003  00000+0  00000+0 0  9996
2 53109  70.1408 288.1261 0009079 283.0875  76.8771  6.42583343 93934
SITRO-AIS 5 (KATYS)     
1 57176U 23091L   26197.57014588  .00006317  00000+0  21936-3 0  9994
2 57176  97.5043 261.7597 0010500   7.6028 352.5369 15.30082510168836
SITRO-AIS 6 (CHIRKIN)   
1 57192U 23091AC  26197.61793212  .00005146  00000+0  20002-3 0  9997
2 57192  97.5051 260.7685 0011023  11.6564 348.4927 15.26452912168770
SITRO-AIS 8 (ANOKHIN)   
1 57193U 23091AD  26197.59994515  .00008282  00000+0  26298-3 0  9991
2 57193  97.5039 263.5011 0009361   3.1138 357.0160 15.32880893168951
SITRO-AIS 7 (FARTUSHNIY)
1 57194U 23091AE  26197.62722975  .00004963  00000+0  19488-3 0  9990
2 57194  97.5046 260.5872 0010991  12.8396 347.3120 15.26126516168761
SITRO-AIS 10 (BURDAEV)  
1 57199U 23091AK  26197.56986260  .00011483  00000+0  29304-3 0  9990
2 57199  97.5065 268.8352 0004738 335.2812  24.8206 15.39659558169289
SITRO-AIS 9 (SHCHUKIN)  
1 57201U 23091AM  26197.60585903  .00011669  00000+0  30277-3 0  9995
2 57201  97.5063 268.5785 0005013 335.5800  24.5207 15.39144857169273
SITRO-AIS 12 (SMIRENNIY)
1 57204U 23091AQ  26197.59087317  .00010966  00000+0  28198-3 0  9990
2 57204  97.5077 269.0487 0004583 327.7176  32.3788 15.39440340169295
SITRO-AIS 11 (SHEFFER)  
1 57208U 23091AU  26197.59599036  .00011507  00000+0  29151-3 0  9992
2 57208  97.5075 269.3195 0004484 327.0851  33.0115 15.39884597169310
SITRO-AIS 25            
1 59066U 24039R   26197.58666799  .00001812  00000+0  14303-3 0  9990
2 59066  95.3891 255.2950 0142889 224.5973 134.3686 14.93647708129119
SITRO-AIS 26            
1 59067U 24039S   26197.59209321  .00001604  00000+0  12755-3 0  9994
2 59067  95.3892 255.1903 0143217 225.1997 133.7513 14.93439238129105
SITRO-AIS 27            
1 59068U 24039T   26197.62103163  .00001374  00000+0  10872-3 0  9998
2 59068  95.3897 255.4957 0142308 223.6041 135.3869 14.93862580129131
SITRO-AIS 28            
1 59071U 24039U   26197.59781647  .00001562  00000+0  12314-3 0  9999
2 59071  95.3895 255.5286 0142188 223.5374 135.4560 14.93897792129135
GRBBETA                 
1 60237U 24128C   26197.35397727  .00001619  00000+0  12123-3 0  9991
2 60237  61.9898 113.9204 0036897 140.9185 219.4584 15.06812637110668
OOV-CUBE (TUBSAT-30)    
1 60240U 24128F   26197.53120245  .00000944  00000+0  84626-4 0  9992
2 60240  61.9939 123.2433 0040943 140.3157 220.0943 15.02876977110521
ROBUSTA-3A (MEDITERRAN*)
1 60243U 24128J   26197.30273769  .00003645  00000+0  22081-3 0  9997
2 60243  61.9865 105.2566 0037973 133.9468 226.4772 15.11995770110827
LASARSAT                
1 62391U 24247Q   26197.09385022  .00020669  00000+0  39100-3 0  9992
2 62391  44.9739  99.5612 0007476 171.6523 188.4493 15.48082110 87798
CROCUBE                 
1 62394U 24247T   26197.11839026  .00024938  00000+0  43576-3 0  9991
2 62394  44.9721  96.2522 0007681 178.5471 181.5444 15.50241694 87834
FORESAIL-1 PRIME        
1 66778U 25276DS  26197.44589904  .00002166  00000+0  10692-3 0  9999
2 66778  97.4192 270.1839 0002786  41.5942 318.5504 15.18943971 34849
KNACKSAT-2              
1 67683U 98067XZ  26197.40997144  .00033790  00000+0  37622-3 0  9997
2 67683  51.6275 147.1984 0007922 331.8653  28.1912 15.62488251 24844
